{
  "type": "FeatureCollection",
  "name": "DEMO — замените этот файл на реальный слой",
  "features": [
    {
      "type": "Feature",
      "properties": {
        "zone": "Ж-1",
        "описание": "Демо-объект. Положите сюда настоящий экспорт слоя ПЗЗ из QGIS/NextGIS."
      },
      "geometry": {
        "type": "Polygon",
        "coordinates": [
          [
            [
              92.8,
              56.0
            ],
            [
              92.9,
              56.0
            ],
            [
              92.9,
              56.1
            ],
            [
              92.8,
              56.1
            ],
            [
              92.8,
              56.0
            ]
          ]
        ]
      }
    }
  ]
}