{
"type": "FeatureCollection",
"name": "1shuvaevo",
"features": [
{ "type": "Feature", "properties": { "cadastralDistrictsCode": null, "category": null, "categoryName": null, "descr": null, "externalKey": null, "interactionId": null, "label": null, "options": "{\n}\n", "subcategory": null, "systemInfo": "{\n}\n" }, "geometry": null },
{ "type": "Feature", "id": 105635949, "properties": { "cadastralDistrictsCode": 24, "category": 36368, "categoryName": "Земельные участки ЕГРН", "descr": "24:11:0330102:814", "externalKey": "24:11:0330102:814", "interactionId": 105570257, "label": "24:11:0330102:814", "options": { "area": null, "cad_num": "24:11:0330102:814", "cost_application_date": "2023-10-19", "cost_approvement_date": "", "cost_determination_date": "2022-01-01", "cost_index": 262.41000000000003, "cost_registration_date": "2023-11-22", "cost_value": 262410, "declared_area": null, "determination_couse": "Акт бюджетного учреждения, созданного субъектом Российской Федерации, об определении кадастровой стоимости в соответствии со статьей 16 Закона 237-ФЗ", "land_record_area": 1000, "land_record_category_type": "Земли населенных пунктов", "land_record_reg_date": "2023-10-19", "land_record_subtype": "Землепользование", "land_record_type": "Земельный участок", "ownership_type": "Частная", "permitted_use_established_by_document": "для ведения личного подсобного хозяйства (приусадебный земельный участок) (код 2.2)", "previously_posted": "Учтенный", "quarter_cad_number": "24:11:0330102", "readable_address": "Российская Федерация, Красноярский край, муниципальный район Емельяновский, сельское поселение Шуваевский сельсовет, село Шуваево, улица Степная, земельный участок 13", "right_type": "Собственность", "specified_area": 1000, "status": "Учтенный" }, "subcategory": 5, "systemInfo": { "inserted": "2023-12-21T21:48:01.400497", "insertedBy": "7EF5CD0B-AC08-4097-AF2B-07CD85992A79", "updated": "2026-02-01T20:31:45.317888", "updatedBy": "7EF5CD0B-AC08-4097-AF2B-07CD85992A79" } }, "geometry": { "type": "Polygon", "coordinates": [ [ [ 10342220.413467077538371, 7596915.684515058062971 ], [ 10342213.291214244440198, 7596957.559821651317179 ], [ 10342144.071978012099862, 7596921.562814211472869 ], [ 10342152.398509595543146, 7596877.838667577132583 ], [ 10342220.413467077538371, 7596915.684515058062971 ] ] ], "crs": { "type": "name", "properties": { "name": "EPSG:3857" } } } },
{ "type": "Feature", "id": 150015475, "properties": { "cadastralDistrictsCode": 24, "category": 36368, "categoryName": "Земельные участки ЕГРН", "descr": "24:11:0330102:794", "externalKey": "24:11:0330102:794", "interactionId": 132489876, "label": "24:11:0330102:794", "options": { "area": null, "cad_num": "24:11:0330102:794", "cost_application_date": "2023-08-21", "cost_approvement_date": "", "cost_determination_date": "2022-01-01", "cost_index": 262.41000000000003, "cost_registration_date": "2023-09-07", "cost_value": 281828.34000000003, "declared_area": null, "determination_couse": "Акт бюджетного учреждения, созданного субъектом Российской Федерации, об определении кадастровой стоимости в соответствии со статьей 16 Закона 237-ФЗ\n\n\n\n\n\n\n\n\n\n\n\n\n\n\n\n\n\n\n\n\n\n\n\n\n\n\n\n\n\n\n\n\n\n\n\n\n\n\n\n\n\n\n\n\n\n\n\n\n\n\n\n\n\n\n\n\n\n\n\n\n\n\n\n\n\n\n\n\n\n\n\n\n\n\n\n\n\n\n\n\n\n\n\n\n\n\n\n\n\n\n\n\n\n\n\n\n\n\n\n\n\n\n\n\n\n\n\n\n\n\n\n\n\n\n\n\n\n\n\n\n\n\n\n\n\n\n\n\n\n\n\n\n\n\n\n\n\n\n\n\n\n\n\n\n\n\n\n\n\n\n\n\n\n\n\n\n\n\n\n\n\n\n\n\n\n\n", "land_record_area": 1074, "land_record_category_type": "Земли населенных пунктов", "land_record_reg_date": "2023-08-20", "land_record_subtype": "Землепользование", "land_record_type": "Земельный участок", "ownership_type": null, "permitted_use_established_by_document": "Для ведения личного подсобного хозяйства (приусадебный земельный участок) (2.2.)", "previously_posted": "Учтенный", "quarter_cad_number": "24:11:0330102", "readable_address": "Российская Федерация,Красноярский край, муниципальный район Емельяновский, сельское поселение Шуваевский сельсовет, село Шуваево, улица Степная, земельный участок 7/1", "specified_area": 1074, "status": "Учтенный" }, "subcategory": 5, "systemInfo": { "inserted": "2024-06-21T02:35:39.21859", "insertedBy": "7EF5CD0B-AC08-4097-AF2B-07CD85992A79", "updated": "2026-02-04T03:21:25.304901", "updatedBy": "7EF5CD0B-AC08-4097-AF2B-07CD85992A79" } }, "geometry": { "type": "Polygon", "coordinates": [ [ [ 10341797.947319261729717, 7596970.417774816974998 ], [ 10341817.134929623454809, 7596931.417408405803144 ], [ 10341888.253749908879399, 7596967.204484256915748 ], [ 10341869.065817983821034, 7597006.2055872566998 ], [ 10341797.947319261729717, 7596970.417774816974998 ] ] ], "crs": { "type": "name", "properties": { "name": "EPSG:3857" } } } },
{ "type": "Feature", "id": 150143424, "properties": { "cadastralDistrictsCode": 24, "category": 36368, "categoryName": "Земельные участки ЕГРН", "descr": "24:11:0330102:796", "externalKey": "24:11:0330102:796", "interactionId": 132617825, "label": "24:11:0330102:796", "options": { "area": null, "cad_num": "24:11:0330102:796", "cost_application_date": "2023-08-21", "cost_approvement_date": "", "cost_determination_date": "2022-01-01", "cost_index": 262.41000000000003, "cost_registration_date": "2023-09-07", "cost_value": 284452.44, "declared_area": null, "determination_couse": "Акт бюджетного учреждения, созданного субъектом Российской Федерации, об определении кадастровой стоимости в соответствии со статьей 16 Закона 237-ФЗ\n\n\n\n\n\n\n\n\n\n\n\n\n\n\n\n\n\n\n\n\n\n\n\n\n\n\n\n\n\n\n\n\n\n\n\n\n\n\n\n\n\n\n\n\n\n\n\n\n\n\n\n\n\n\n\n\n\n\n\n\n\n\n\n\n\n\n\n\n\n\n\n\n\n\n\n\n\n\n\n\n\n\n\n\n\n\n\n\n\n\n\n\n\n\n\n\n\n\n\n\n\n\n\n\n\n\n\n\n\n\n\n\n\n\n\n\n\n\n\n\n\n\n\n\n\n\n\n\n\n\n\n\n\n\n\n\n\n\n\n\n\n\n\n\n\n\n\n\n\n\n\n\n\n\n\n\n\n\n\n\n\n\n\n\n\n\n", "land_record_area": 1084, "land_record_category_type": "Земли населенных пунктов", "land_record_reg_date": "2023-08-21", "land_record_subtype": "Землепользование", "land_record_type": "Земельный участок", "ownership_type": null, "permitted_use_established_by_document": "Для ведения личного подсобного хозяйства (приусадебный земельный участок) (2.2.)", "previously_posted": "Учтенный", "quarter_cad_number": "24:11:0330102", "readable_address": "Российская Федерация, Красноярский край, муниципальный район Емельяновский, сельское поселение Шуваевский сельсовет, село Шуваево, улица Степная, земельный участок 7/4", "specified_area": 1084, "status": "Учтенный" }, "subcategory": 5, "systemInfo": { "inserted": "2024-06-21T03:44:48.601629", "insertedBy": "7EF5CD0B-AC08-4097-AF2B-07CD85992A79", "updated": "2026-02-04T03:24:16.478218", "updatedBy": "7EF5CD0B-AC08-4097-AF2B-07CD85992A79" } }, "geometry": { "type": "Polygon", "coordinates": [ [ [ 10341740.737808248028159, 7597088.661655706353486 ], [ 10341759.568889664486051, 7597049.013061846606433 ], [ 10341830.688528705388308, 7597084.801217526197433 ], [ 10341811.481160037219524, 7597124.44963260460645 ], [ 10341740.737808248028159, 7597088.661655706353486 ] ] ], "crs": { "type": "name", "properties": { "name": "EPSG:3857" } } } },
{ "type": "Feature", "id": 150669266, "properties": { "cadastralDistrictsCode": 24, "category": 36368, "categoryName": "Земельные участки ЕГРН", "descr": "24:11:0330102:795", "externalKey": "24:11:0330102:795", "interactionId": 133143667, "label": "24:11:0330102:795", "options": { "area": null, "cad_num": "24:11:0330102:795", "cost_application_date": "2023-08-21", "cost_approvement_date": "", "cost_determination_date": "2022-01-01", "cost_index": 262.41000000000003, "cost_registration_date": "2023-09-07", "cost_value": 281041.10999999999, "declared_area": null, "determination_couse": "Акт бюджетного учреждения, созданного субъектом Российской Федерации, об определении кадастровой стоимости в соответствии со статьей 16 Закона 237-ФЗ\n\n\n\n\n\n\n\n\n\n\n\n\n\n\n\n\n\n\n\n\n\n\n\n\n\n\n\n\n\n\n\n\n\n\n\n\n\n\n\n\n\n\n\n\n\n\n\n\n\n\n\n\n\n\n\n\n\n\n\n\n\n\n\n\n\n\n\n\n\n\n\n\n\n\n\n\n\n\n\n\n\n\n\n\n\n\n\n\n\n\n\n\n\n\n\n\n\n\n\n\n\n\n\n\n\n\n\n\n\n\n\n\n\n\n\n\n\n\n\n\n\n\n\n\n\n\n\n\n\n\n\n\n\n\n\n\n\n\n\n\n\n\n\n\n\n\n\n\n\n\n\n\n\n\n\n\n\n\n\n\n\n\n\n\n\n\n", "land_record_area": 1071, "land_record_category_type": "Земли населенных пунктов", "land_record_reg_date": "2023-08-21", "land_record_subtype": "Землепользование", "land_record_type": "Земельный участок", "ownership_type": "Частная", "permitted_use_established_by_document": "Для ведения личного подсобного хозяйства (приусадебный земельный участок) (2.2.)", "previously_posted": "Учтенный", "quarter_cad_number": "24:11:0330102", "readable_address": "Российская Федерация, Красноярский край, муниципальный район Емельяновский, сельское поселение Шуваевский сельсовет, село Шуваево, улица Степная, земельный участок 7/2", "specified_area": 1071, "status": "Учтенный" }, "subcategory": 5, "systemInfo": { "inserted": "2024-06-21T09:03:11.797041", "insertedBy": "7EF5CD0B-AC08-4097-AF2B-07CD85992A79", "updated": "2026-02-05T22:18:32.344253", "updatedBy": "7EF5CD0B-AC08-4097-AF2B-07CD85992A79" } }, "geometry": { "type": "Polygon", "coordinates": [ [ [ 10341778.901882952079177, 7597009.347375036217272 ], [ 10341797.946726605296135, 7596970.418152386322618 ], [ 10341869.065817983821034, 7597006.2055872566998 ], [ 10341850.021245429292321, 7597045.135167262516916 ], [ 10341778.901882952079177, 7597009.347375036217272 ] ] ], "crs": { "type": "name", "properties": { "name": "EPSG:3857" } } } },
{ "type": "Feature", "id": 414268253, "properties": { "cadastralDistrictsCode": 24, "category": 36368, "categoryName": "Земельные участки ЕГРН", "descr": "24:11:0330102:727", "externalKey": "24:11:0330102:727", "interactionId": 396742638, "label": "24:11:0330102:727", "options": { "area": null, "cad_num": "24:11:0330102:727", "cost_application_date": "2023-01-01", "cost_approvement_date": "", "cost_determination_date": "2022-01-01", "cost_index": 475.24000000000001, "cost_registration_date": "2023-03-24", "cost_value": 14406900.6, "declared_area": null, "determination_couse": "Акт бюджетного учреждения, созданного субъектом Российской Федерации, об определении кадастровой стоимости в соответствии со статьей 16 Закона 237-ФЗ\n\n\n\n\n\n\n\n\n\n\n\n\n\n\n\n\n\n\n\n\n\n\n\n\n\n\n\n\n\n\n\n\n\n\n\n\n\n\n\n\n\n\n\n\n\n\n\n\n\n\n\n\n\n\n", "land_record_category_type": "Земли населенных пунктов", "land_record_reg_date": "2022-04-20", "land_record_subtype": "Землепользование", "land_record_type": "Земельный участок", "ownership_type": null, "permitted_use_established_by_document": "детские сады, объекты дополнительного образования", "quarter_cad_number": "24:11:0330102", "readable_address": "Российская Федерация, Красноярский край, р-н Емельяновский, Шуваевский сельсовет, с.Шуваево", "specified_area": 14106, "status": "Учтенный" }, "subcategory": 5, "systemInfo": { "inserted": "2024-12-07T11:52:08.075836", "insertedBy": "7EF5CD0B-AC08-4097-AF2B-07CD85992A79", "updated": "2026-03-19T12:24:03.356035", "updatedBy": "064EDE2E-1DAA-4758-B509-34BC38C4AA5D" } }, "geometry": { "type": "Polygon", "coordinates": [ [ [ 10342153.591697571799159, 7597092.154632655903697 ], [ 10342076.431095430627465, 7597247.73328160494566 ], [ 10341840.012068523094058, 7597136.044483597390354 ], [ 10341914.899043930694461, 7596980.467248542234302 ], [ 10342153.591697571799159, 7597092.154632655903697 ] ] ], "crs": { "type": "name", "properties": { "name": "EPSG:3857" } } } },
{ "type": "Feature", "id": 414539101, "properties": { "cadastralDistrictsCode": 24, "category": 36368, "categoryName": "Земельные участки ЕГРН", "descr": "24:11:0130101:242", "externalKey": "24:11:0130101:242", "interactionId": 397013486, "label": "24:11:0130101:242", "options": { "area": null, "cad_num": "24:11:0130101:242", "cost_application_date": "2020-11-27", "cost_approvement_date": "", "cost_determination_date": "", "cost_index": 0, "cost_registration_date": "2024-11-28", "cost_value": 0, "declared_area": null, "determination_couse": "", "land_record_category_type": "Категория не установлена", "land_record_reg_date": "2004-05-20", "land_record_subtype": "Обособленный участок", "land_record_type": "Земельный участок", "ownership_type": null, "permitted_use_established_by_document": "", "quarter_cad_number": "24:11:0130101", "readable_address": "Местоположение установлено относительно ориентира, расположенного в границах участка. Ориентир Опора № 42. Почтовый адрес ориентира: Красноярский край, р-н. Емельяновский.", "specified_area": 4, "status": "Ранее учтенный" }, "subcategory": 1, "systemInfo": { "inserted": "2024-12-07T12:22:33.795958", "insertedBy": "7EF5CD0B-AC08-4097-AF2B-07CD85992A79", "updated": "2026-03-14T09:27:03.327214", "updatedBy": "22F23413-4218-4EB5-B8D3-D2646E3C2FAE" } }, "geometry": { "type": "Polygon", "coordinates": [ [ [ 10342060.914173943921924, 7596812.917157743126154 ], [ 10342059.70808008685708, 7596816.311510650441051 ], [ 10342056.320794543251395, 7596815.102899122051895 ], [ 10342057.526889706030488, 7596811.708547278307378 ], [ 10342060.914173943921924, 7596812.917157743126154 ] ] ], "crs": { "type": "name", "properties": { "name": "EPSG:3857" } } } },
{ "type": "Feature", "id": 414539528, "properties": { "cadastralDistrictsCode": 24, "category": 36368, "categoryName": "Земельные участки ЕГРН", "descr": "24:11:0130101:243", "externalKey": "24:11:0130101:243", "interactionId": 397013913, "label": "24:11:0130101:243", "options": { "area": null, "cad_num": "24:11:0130101:243", "cost_application_date": "2020-11-27", "cost_approvement_date": "", "cost_determination_date": "", "cost_index": 0, "cost_registration_date": "2024-11-28", "cost_value": 0, "declared_area": null, "determination_couse": "", "land_record_category_type": "Категория не установлена", "land_record_reg_date": "2004-05-20", "land_record_subtype": "Обособленный участок", "land_record_type": "Земельный участок", "ownership_type": null, "permitted_use_established_by_document": "", "quarter_cad_number": "24:11:0130101", "readable_address": "Местоположение установлено относительно ориентира, расположенного в границах участка. Ориентир Опора № 43. Почтовый адрес ориентира: Красноярский край, р-н. Емельяновский.", "specified_area": 14, "status": "Ранее учтенный" }, "subcategory": 1, "systemInfo": { "inserted": "2024-12-07T12:22:36.969345", "insertedBy": "7EF5CD0B-AC08-4097-AF2B-07CD85992A79", "updated": "2026-03-14T09:27:03.583026", "updatedBy": "22F23413-4218-4EB5-B8D3-D2646E3C2FAE" } }, "geometry": { "type": "Polygon", "coordinates": [ [ [ 10341975.413923775777221, 7596790.965806039981544 ], [ 10341978.154416376724839, 7596780.26050812844187 ], [ 10341982.061947386711836, 7596781.272227803245187 ], [ 10341979.321459861472249, 7596791.977528517134488 ], [ 10341975.413923775777221, 7596790.965806039981544 ] ] ], "crs": { "type": "name", "properties": { "name": "EPSG:3857" } } } },
{ "type": "Feature", "id": 414559904, "properties": { "cadastralDistrictsCode": 24, "category": 36368, "categoryName": "Земельные участки ЕГРН", "descr": "24:11:0130101:244", "externalKey": "24:11:0130101:244", "interactionId": 397034289, "label": "24:11:0130101:244", "options": { "area": null, "cad_num": "24:11:0130101:244", "cost_application_date": "2020-11-27", "cost_approvement_date": "", "cost_determination_date": "", "cost_index": 0, "cost_registration_date": "2024-11-28", "cost_value": 0, "declared_area": null, "determination_couse": "", "land_record_category_type": "Категория не установлена", "land_record_reg_date": "2004-05-20", "land_record_subtype": "Обособленный участок", "land_record_type": "Земельный участок", "ownership_type": null, "permitted_use_established_by_document": "", "quarter_cad_number": "24:11:0130101", "readable_address": "Местоположение установлено относительно ориентира, расположенного в границах участка. Ориентир Опора № 44. Почтовый адрес ориентира: Красноярский край, р-н. Емельяновский.", "specified_area": 4, "status": "Ранее учтенный" }, "subcategory": 1, "systemInfo": { "inserted": "2024-12-07T12:25:02.86944", "insertedBy": "7EF5CD0B-AC08-4097-AF2B-07CD85992A79", "updated": "2026-03-14T09:27:14.850899", "updatedBy": "22F23413-4218-4EB5-B8D3-D2646E3C2FAE" } }, "geometry": { "type": "Polygon", "coordinates": [ [ [ 10341884.43688952177763, 7596787.621016046963632 ], [ 10341884.575263008475304, 7596791.214888676069677 ], [ 10341880.98887243680656, 7596791.353550107218325 ], [ 10341880.85050062276423, 7596787.759677345864475 ], [ 10341884.43688952177763, 7596787.621016046963632 ] ] ], "crs": { "type": "name", "properties": { "name": "EPSG:3857" } } } },
{ "type": "Feature", "id": 417200365, "properties": { "cadastralDistrictsCode": 24, "category": 36368, "categoryName": "Земельные участки ЕГРН", "descr": "24:11:0330102:788", "externalKey": "24:11:0330102:788", "interactionId": 399674750, "label": "24:11:0330102:788", "options": { "area": null, "cad_num": "24:11:0330102:788", "cost_application_date": "2023-07-13", "cost_approvement_date": "", "cost_determination_date": "2022-01-01", "cost_index": 262.41000000000003, "cost_registration_date": "2023-08-04", "cost_value": 262410, "declared_area": null, "determination_couse": "", "land_record_category_type": "Земли населенных пунктов", "land_record_reg_date": "2023-07-13", "land_record_subtype": "Землепользование", "land_record_type": "Земельный участок", "ownership_type": "Частная", "permitted_use_established_by_document": "для ведения личного подсобного хозяйства", "quarter_cad_number": "24:11:0330102", "readable_address": "Красноярский край, муниципальный район Емельяновский, сельское поселение Шуваевский сельсовет, село Шуваево, улица Степная, земельный участок 7", "specified_area": 1000, "status": "Учтенный" }, "subcategory": 5, "systemInfo": { "inserted": "2024-12-07T17:41:09.715956", "insertedBy": "7EF5CD0B-AC08-4097-AF2B-07CD85992A79", "updated": "2026-02-01T19:01:01.839232", "updatedBy": "7EF5CD0B-AC08-4097-AF2B-07CD85992A79" } }, "geometry": { "type": "Polygon", "coordinates": [ [ [ 10342118.052077310159802, 7597000.607365436851978 ], [ 10342188.562971521168947, 7597036.606756123714149 ], [ 10342171.227122809737921, 7597072.862253857776523 ], [ 10342100.033684924244881, 7597037.508468806743622 ], [ 10342118.052077310159802, 7597000.607365436851978 ] ] ], "crs": { "type": "name", "properties": { "name": "EPSG:3857" } } } },
{ "type": "Feature", "id": 417217567, "properties": { "cadastralDistrictsCode": 24, "category": 36368, "categoryName": "Земельные участки ЕГРН", "descr": "24:11:0330102:787", "externalKey": "24:11:0330102:787", "interactionId": 399691952, "label": "24:11:0330102:787", "options": { "area": null, "cad_num": "24:11:0330102:787", "cost_application_date": "2023-07-13", "cost_approvement_date": "", "cost_determination_date": "2022-01-01", "cost_index": 262.41000000000003, "cost_registration_date": "2023-08-04", "cost_value": 262410, "declared_area": null, "determination_couse": "", "land_record_category_type": "Земли населенных пунктов", "land_record_reg_date": "2023-07-13", "land_record_subtype": "Землепользование", "land_record_type": "Земельный участок", "ownership_type": "Частная", "permitted_use_established_by_document": "для ведения личного подсобного хозяйства", "quarter_cad_number": "24:11:0330102", "readable_address": "Красноярский край, муниципальный район Емельяновский, сельское поселение Шуваевский сельсовет, село Шуваево, улица Степная, земельный участок 9", "specified_area": 1000, "status": "Учтенный" }, "subcategory": 5, "systemInfo": { "inserted": "2024-12-07T17:43:52.318075", "insertedBy": "7EF5CD0B-AC08-4097-AF2B-07CD85992A79", "updated": "2026-02-01T19:02:39.61818", "updatedBy": "7EF5CD0B-AC08-4097-AF2B-07CD85992A79" } }, "geometry": { "type": "Polygon", "coordinates": [ [ [ 10342206.078463394194841, 7596999.99225917737931 ], [ 10342188.562971521168947, 7597036.606756123714149 ], [ 10342118.052077310159802, 7597000.607365436851978 ], [ 10342136.034359700977802, 7596963.760252450592816 ], [ 10342206.078463394194841, 7596999.99225917737931 ] ] ], "crs": { "type": "name", "properties": { "name": "EPSG:3857" } } } },
{ "type": "Feature", "id": 418281161, "properties": { "cadastralDistrictsCode": 24, "category": 36368, "categoryName": "Земельные участки ЕГРН", "descr": "24:11:0330102:815", "externalKey": "24:11:0330102:815", "interactionId": 400755546, "label": "24:11:0330102:815", "options": { "area": null, "cad_num": "24:11:0330102:815", "cost_application_date": "2023-10-19", "cost_approvement_date": "", "cost_determination_date": "2022-01-01", "cost_index": 262.41000000000003, "cost_registration_date": "2023-11-22", "cost_value": 262410, "declared_area": null, "determination_couse": "Акт бюджетного учреждения, созданного субъектом Российской Федерации, об определении кадастровой стоимости в соответствии со статьей 16 Закона 237-ФЗ", "land_record_category_type": "Земли населенных пунктов", "land_record_reg_date": "2023-10-19", "land_record_subtype": "Землепользование", "land_record_type": "Земельный участок", "ownership_type": "Частная", "permitted_use_established_by_document": "для ведения личного подсобного хозяйства (приусадебный земельный участок) (код 2.2)", "quarter_cad_number": "24:11:0330102", "readable_address": "Российская Федерация, Красноярский край, муниципальный район Емельяновский, сельское поселение Шуваевский сельсовет, село Шуваево, улица Степная, земельный участок 11", "specified_area": 1000, "status": "Учтенный" }, "subcategory": 5, "systemInfo": { "inserted": "2024-12-08T01:53:49.236008", "insertedBy": "7EF5CD0B-AC08-4097-AF2B-07CD85992A79", "updated": "2026-02-02T00:01:31.034827", "updatedBy": "7EF5CD0B-AC08-4097-AF2B-07CD85992A79" } }, "geometry": { "type": "Polygon", "coordinates": [ [ [ 10342144.071978012099862, 7596921.562814211472869 ], [ 10342213.291214244440198, 7596957.559821651317179 ], [ 10342206.078463394194841, 7596999.99225917737931 ], [ 10342136.034359700977802, 7596963.760252450592816 ], [ 10342144.071978012099862, 7596921.562814211472869 ] ] ], "crs": { "type": "name", "properties": { "name": "EPSG:3857" } } } },
{ "type": "Feature", "id": 418561824, "properties": { "cadastralDistrictsCode": 24, "category": 36368, "categoryName": "Земельные участки ЕГРН", "descr": "24:11:0330102:798", "externalKey": "24:11:0330102:798", "interactionId": 401036209, "label": "24:11:0330102:798", "options": { "area": null, "cad_num": "24:11:0330102:798", "cost_application_date": "2023-08-30", "cost_approvement_date": "", "cost_determination_date": "2022-01-01", "cost_index": 262.41000000000003, "cost_registration_date": "2023-09-15", "cost_value": 286026.90000000002, "declared_area": null, "determination_couse": "Акт бюджетного учреждения, созданного субъектом Российской Федерации, об определении кадастровой стоимости в соответствии со статьей 16 Закона 237-ФЗ\n\n\n\n\n\n\n\n\n\n\n\n\n\n\n\n\n\n\n\n\n\n\n\n\n\n\n\n\n\n\n\n\n\n\n\n\n\n\n\n\n\n\n\n\n\n\n\n\n\n\n\n\n\n\n\n\n\n\n\n\n\n\n\n\n\n\n\n\n\n\n\n\n\n\n\n\n\n\n\n\n\n\n\n\n\n\n\n\n\n\n\n\n\n\n\n\n\n\n\n\n\n\n\n\n\n\n\n\n\n\n\n\n\n\n\n\n\n\n\n\n\n\n\n\n\n\n\n\n\n\n\n\n\n\n\n\n\n\n\n\n\n\n\n\n\n\n\n\n\n\n\n\n\n\n\n\n\n\n\n\n\n\n\n\n\n\n\n\n\n\n\n\n\n", "land_record_category_type": "Земли населенных пунктов", "land_record_reg_date": "2023-08-30", "land_record_subtype": "Землепользование", "land_record_type": "Земельный участок", "ownership_type": null, "permitted_use_established_by_document": "Для ведения личного подсобного хозяйства (приусадебный земельный участок) (2.2.)", "quarter_cad_number": "24:11:0330102", "readable_address": "Российская Федерация, Красноярский край, муниципальный район Емельяновский, сельское поселение Шуваевский сельсовет, село Шуваево, улица Степная, земельный участок 7/3", "specified_area": 1090, "status": "Учтенный" }, "subcategory": 5, "systemInfo": { "inserted": "2024-12-08T03:26:50.983529", "insertedBy": "7EF5CD0B-AC08-4097-AF2B-07CD85992A79", "updated": "2026-02-04T03:24:00.131905", "updatedBy": "7EF5CD0B-AC08-4097-AF2B-07CD85992A79" } }, "geometry": { "type": "Polygon", "coordinates": [ [ [ 10341759.568889664486051, 7597049.013061846606433 ], [ 10341778.901882952079177, 7597009.347375036217272 ], [ 10341850.021245429292321, 7597045.135167262516916 ], [ 10341830.688528705388308, 7597084.801217526197433 ], [ 10341759.568889664486051, 7597049.013061846606433 ] ] ], "crs": { "type": "name", "properties": { "name": "EPSG:3857" } } } },
{ "type": "Feature", "id": 534345860, "properties": { "cadastralDistrictsCode": 24, "category": 36368, "categoryName": "Земельные участки ЕГРН", "descr": "24:11:0330102:858", "externalKey": "24:11:0330102:858", "interactionId": 516812758, "label": "24:11:0330102:858", "options": { "area": null, "cad_num": "24:11:0330102:858", "cost_application_date": "2024-12-13", "cost_approvement_date": "", "cost_determination_date": "2022-01-01", "cost_index": 47.759999999999998, "cost_registration_date": "2025-01-09", "cost_value": 69586.320000000007, "declared_area": null, "determination_couse": "Акт бюджетного учреждения, созданного субъектом Российской Федерации, об определении кадастровой стоимости в соответствии со статьей 16 Закона 237-ФЗ", "land_record_category_type": "Земли населенных пунктов", "land_record_reg_date": "2024-12-13", "land_record_subtype": "Землепользование", "land_record_type": "Земельный участок", "ownership_type": null, "permitted_use_established_by_document": "Ведение огородничества", "quarter_cad_number": "24:11:0330102", "readable_address": "Российская Федерация, Красноярский край, Емельяновский район, с. Шуваево", "specified_area": 1457, "status": "Учтенный" }, "subcategory": 5, "systemInfo": { "inserted": "2024-12-21T18:51:15.390597", "insertedBy": "7EF5CD0B-AC08-4097-AF2B-07CD85992A79", "updated": "2026-02-07T21:13:46.74592", "updatedBy": "7EF5CD0B-AC08-4097-AF2B-07CD85992A79" } }, "geometry": { "type": "Polygon", "coordinates": [ [ [ 10341979.742256266996264, 7596978.168800266459584 ], [ 10342019.962298486381769, 7596901.085455923341215 ], [ 10342067.765636632218957, 7596927.871654978953302 ], [ 10342029.253174480050802, 7597002.262574326246977 ], [ 10341979.742256266996264, 7596978.168800266459584 ] ] ], "crs": { "type": "name", "properties": { "name": "EPSG:3857" } } } },
{ "type": "Feature", "id": 534361629, "properties": { "cadastralDistrictsCode": 24, "category": 36368, "categoryName": "Земельные участки ЕГРН", "descr": "24:11:0330102:859", "externalKey": "24:11:0330102:859", "interactionId": 516828527, "label": "24:11:0330102:859", "options": { "area": null, "cad_num": "24:11:0330102:859", "cost_application_date": "2024-12-17", "cost_approvement_date": "", "cost_determination_date": "2022-01-01", "cost_index": 47.759999999999998, "cost_registration_date": "2025-01-13", "cost_value": 67389.360000000001, "declared_area": null, "determination_couse": "Акт бюджетного учреждения, созданного субъектом Российской Федерации, об определении кадастровой стоимости в соответствии со статьей 16 Закона 237-ФЗ\n\n\n\n\n\n\n\n\n\n\n\n\n\n\n\n\n\n\n\n\n\n\n\n\n\n\n\n\n\n\n\n\n\n\n\n\n\n\n\n\n\n\n\n\n\n\n\n\n\n\n\n\n\n\n\n\n\n\n\n\n\n\n\n\n\n\n\n\n\n\n\n\n\n\n\n\n\n\n\n\n\n\n\n\n", "land_record_category_type": "Земли населенных пунктов", "land_record_reg_date": "2024-12-17", "land_record_subtype": "Землепользование", "land_record_type": "Земельный участок", "ownership_type": null, "permitted_use_established_by_document": "Ведение огородничества", "quarter_cad_number": "24:11:0330102", "readable_address": "Российская Федерация, Красноярский край, Емельяновский район, с. Шуваево", "specified_area": 1411, "status": "Учтенный" }, "subcategory": 5, "systemInfo": { "inserted": "2024-12-21T19:12:04.23234", "insertedBy": "7EF5CD0B-AC08-4097-AF2B-07CD85992A79", "updated": "2026-02-07T18:55:40.607713", "updatedBy": "7EF5CD0B-AC08-4097-AF2B-07CD85992A79" } }, "geometry": { "type": "Polygon", "coordinates": [ [ [ 10342002.438037421554327, 7596892.148458211682737 ], [ 10342031.840695552527905, 7596831.024693286977708 ], [ 10342081.928411325439811, 7596852.387258416973054 ], [ 10342067.765636632218957, 7596927.871654978953302 ], [ 10342019.962298486381769, 7596901.085455923341215 ], [ 10342002.438037421554327, 7596892.148458211682737 ] ] ], "crs": { "type": "name", "properties": { "name": "EPSG:3857" } } } },
{ "type": "Feature", "id": 1032550337, "properties": { "cadastralDistrictsCode": 24, "category": 36368, "categoryName": "Земельные участки ЕГРН", "descr": "24:11:0330102:880", "externalKey": "24:11:0330102:880", "interactionId": 1010119712, "label": "24:11:0330102:880", "options": { "area": null, "cad_num": "24:11:0330102:880", "cost_application_date": "2025-08-18", "cost_approvement_date": "", "cost_determination_date": "2022-01-01", "cost_index": 47.759999999999998, "cost_registration_date": "2025-09-03", "cost_value": 71640, "declared_area": null, "determination_couse": "Акт бюджетного учреждения, созданного субъектом Российской Федерации, об определении кадастровой стоимости в соответствии со статьей 16 Закона 237-ФЗ\n\n\n\n\n\n\n\n\n\n\n\n\n\n\n\n\n\n\n\n\n\n\n\n\n\n\n\n\n\n\n\n\n\n\n\n\n\n\n\n\n\n\n\n\n\n\n\n\n\n\n\n\n\n\n\n\n\n\n\n\n\n\n\n\n\n\n\n\n\n\n\n\n\n\n\n\n\n\n\n\n\n\n\n\n\n\n\n\n\n\n\n\n\n\n\n\n\n\n\n\n\n\n\n\n\n\n\n\n\n\n\n\n\n\n\n\n\n\n\n\n\n\n\n\n\n\n\n\n\n\n\n\n\n\n\n\n\n\n\n\n\n\n\n\n\n\n\n\n\n\n\n\n\n\n\n\n\n\n\n\n\n\n\n\n\n\n\n\n\n\n\n\n\n\n\n\n\n\n\n\n\n\n\n\n\n\n\n\n\n\n\n\n\n\n\n\n\n\n\n\n\n\n\n\n\n\n\n\n\n\n\n\n\n\n\n\n\n\n\n\n\n\n\n\n\n\n\n\n\n\n\n\n\n\n\n", "land_record_category_type": "Земли населенных пунктов", "land_record_reg_date": "2025-08-18", "land_record_subtype": "Землепользование", "land_record_type": "Земельный участок", "ownership_type": null, "permitted_use_established_by_document": "ведение огородничества (код 13.1)", "quarter_cad_number": "24:11:0330102", "readable_address": "Российская Федерация, Красноярский край, Емельяновский район, с Шуваево", "specified_area": 1500, "status": "Учтенный" }, "subcategory": 5, "systemInfo": { "inserted": "2025-08-18T20:38:16.514214", "insertedBy": "7EF5CD0B-AC08-4097-AF2B-07CD85992A79", "updated": "2026-02-08T22:22:13.349972", "updatedBy": "7EF5CD0B-AC08-4097-AF2B-07CD85992A79" } }, "geometry": { "type": "Polygon", "coordinates": [ [ [ 10341979.742256266996264, 7596978.168800266459584 ], [ 10341930.50137603469193, 7596953.536099417135119 ], [ 10341970.184855286031961, 7596875.733761070296168 ], [ 10342002.438037421554327, 7596892.148458211682737 ], [ 10342019.962298486381769, 7596901.085455923341215 ], [ 10341979.742256266996264, 7596978.168800266459584 ] ] ], "crs": { "type": "name", "properties": { "name": "EPSG:3857" } } } },
{ "type": "Feature", "id": 1033435839, "properties": { "cadastralDistrictsCode": 24, "category": 36368, "categoryName": "Земельные участки ЕГРН", "descr": "24:11:0330102:881", "externalKey": "24:11:0330102:881", "interactionId": 1010962211, "label": "24:11:0330102:881", "options": { "area": null, "cad_num": "24:11:0330102:881", "cost_application_date": "2025-08-20", "cost_approvement_date": "", "cost_determination_date": "2022-01-01", "cost_index": 254.00999999999999, "cost_registration_date": "2025-09-04", "cost_value": 472458.59999999998, "declared_area": null, "determination_couse": "Акт бюджетного учреждения, созданного субъектом Российской Федерации, об определении кадастровой стоимости в соответствии со статьей 16 Закона 237-ФЗ\n\n\n\n\n\n\n\n\n\n\n\n\n\n\n\n\n\n\n\n\n\n\n\n\n\n\n\n\n\n\n\n\n\n\n\n\n\n\n\n\n\n\n\n\n\n\n\n\n\n\n\n\n\n\n\n\n\n\n\n\n\n\n\n\n\n\n\n\n\n\n\n\n\n\n\n\n\n\n\n\n\n\n\n\n\n\n\n\n\n\n\n\n\n\n\n\n\n\n\n\n\n\n\n\n\n\n\n\n\n\n\n\n\n\n\n\n\n\n\n\n\n\n\n\n\n\n\n\n\n\n\n\n\n\n\n\n\n\n\n\n\n\n\n\n\n\n\n\n\n\n\n\n\n\n\n\n\n\n\n\n\n\n\n\n\n\n\n\n\n\n\n\n\n\n\n\n\n\n\n\n\n\n\n\n\n\n\n\n\n\n\n\n\n\n\n\n\n\n\n\n\n\n\n\n\n\n\n\n\n\n\n\n\n\n\n\n\n\n\n\n\n\n\n\n\n\n\n\n\n\n\n\n\n\n\n\n\n", "land_record_category_type": "Земли населенных пунктов", "land_record_reg_date": "2025-08-20", "land_record_subtype": "Землепользование", "land_record_type": "Земельный участок", "ownership_type": null, "permitted_use_established_by_document": "Для ведения личного подсобного хозяйства (приусадебный земельный участок) (2.2)", "quarter_cad_number": "24:11:0330102", "readable_address": "Российская Федерация, Красноярский край, Емельяновский район, с Шуваево", "specified_area": 1860, "status": "Учтенный" }, "subcategory": 5, "systemInfo": { "inserted": "2025-08-20T03:02:30.063063", "insertedBy": "7EF5CD0B-AC08-4097-AF2B-07CD85992A79", "updated": "2026-02-08T16:48:27.411475", "updatedBy": "7EF5CD0B-AC08-4097-AF2B-07CD85992A79" } }, "geometry": { "type": "Polygon", "coordinates": [ [ [ 10342081.964348213747144, 7596852.333402858115733 ], [ 10342151.537938563153148, 7596877.74763455055654 ], [ 10342135.891355074942112, 7596963.436616221442819 ], [ 10342068.105956392362714, 7596928.141659908927977 ], [ 10342081.964348213747144, 7596852.333402858115733 ] ] ], "crs": { "type": "name", "properties": { "name": "EPSG:3857" } } } },
{ "type": "Feature", "id": 1136040656, "properties": { "cadastralDistrictsCode": 24, "category": 36368, "categoryName": "Земельные участки ЕГРН", "descr": "24:11:0330102:888", "externalKey": "24:11:0330102:888", "interactionId": 1110910789, "label": "24:11:0330102:888", "options": { "area": null, "cad_num": "24:11:0330102:888", "cost_application_date": "2025-11-01", "cost_approvement_date": "", "cost_determination_date": "2022-01-01", "cost_index": 47.759999999999998, "cost_registration_date": "2025-11-24", "cost_value": 71640, "declared_area": null, "determination_couse": "Акт бюджетного учреждения, созданного субъектом Российской Федерации, об определении кадастровой стоимости в соответствии со статьей 16 Закона 237-ФЗ", "land_record_category_type": "Земли населенных пунктов", "land_record_reg_date": "2025-11-01", "land_record_subtype": "Землепользование", "land_record_type": "Земельный участок", "ownership_type": null, "permitted_use_established_by_document": "Ведение огородничества (код 13.1)", "quarter_cad_number": "24:11:0330102", "readable_address": "Российская Федерация, Красноярский край, Емельяновский район, с. Шуваево", "specified_area": 1500, "status": "Учтенный" }, "subcategory": 5, "systemInfo": { "inserted": "2025-11-01T03:30:22.760252", "insertedBy": "7EF5CD0B-AC08-4097-AF2B-07CD85992A79", "updated": "2026-02-11T15:36:42.109138", "updatedBy": "7EF5CD0B-AC08-4097-AF2B-07CD85992A79" } }, "geometry": { "type": "Polygon", "coordinates": [ [ [ 10341897.04697341658175, 7596936.921611959114671 ], [ 10341847.806622298434377, 7596912.28851140383631 ], [ 10341887.258128406479955, 7596834.127317890524864 ], [ 10341936.748661458492279, 7596859.101671224460006 ], [ 10341897.04697341658175, 7596936.921611959114671 ] ] ], "crs": { "type": "name", "properties": { "name": "EPSG:3857" } } } },
{ "type": "Feature", "id": 1706881038, "properties": { "cadastralDistrictsCode": 24, "category": 36368, "categoryName": "Земельные участки ЕГРН", "descr": "24:11:0330102:899", "externalKey": "24:11:0330102:899", "interactionId": 1680116541, "label": "24:11:0330102:899", "options": { "cad_num": "24:11:0330102:899", "cost_application_date": "", "cost_approvement_date": "", "cost_determination_date": "", "cost_index": 0, "cost_registration_date": "", "cost_value": 0, "determination_couse": "", "land_record_category_type": "Земли населенных пунктов", "land_record_reg_date": "2026-03-19", "land_record_subtype": "Землепользование", "land_record_type": "Земельный участок", "permitted_use_established_by_document": "Улично-дорожная сеть", "quarter_cad_number": "24:11:0330102", "readable_address": "Российская Федерация, Красноярский край, муниципальный округ Емельяновский, Шуваевский сельсовет, село Шуваево", "specified_area": 2595, "status": "Учтенный" }, "subcategory": 5, "systemInfo": { "inserted": "2026-03-19T03:08:17.95595", "insertedBy": "7EF5CD0B-AC08-4097-AF2B-07CD85992A79", "updated": "2026-03-19T03:08:19.662973", "updatedBy": "064EDE2E-1DAA-4758-B509-34BC38C4AA5D" } }, "geometry": { "type": "Polygon", "coordinates": [ [ [ 10341826.037858808413148, 7597165.080809006467462 ], [ 10341840.012068523094058, 7597136.044483597390354 ], [ 10342076.431095430627465, 7597247.73328160494566 ], [ 10342062.332823915407062, 7597276.213229660876095 ], [ 10341826.037858808413148, 7597165.080809006467462 ] ] ], "crs": { "type": "name", "properties": { "name": "EPSG:3857" } } } },
{ "type": "Feature", "id": 1706881039, "properties": { "cadastralDistrictsCode": 24, "category": 36368, "categoryName": "Земельные участки ЕГРН", "descr": "24:11:0330102:898", "externalKey": "24:11:0330102:898", "interactionId": 1680116542, "label": "24:11:0330102:898", "options": { "cad_num": "24:11:0330102:898", "cost_application_date": "", "cost_approvement_date": "", "cost_determination_date": "", "cost_index": 0, "cost_registration_date": "", "cost_value": 0, "determination_couse": "", "land_record_category_type": "Земли населенных пунктов", "land_record_reg_date": "2026-03-19", "land_record_subtype": "Землепользование", "land_record_type": "Земельный участок", "permitted_use_established_by_document": "Дошкольное; начальное и среднее общее образование", "quarter_cad_number": "24:11:0330102", "readable_address": "Российская Федерация, Красноярский край, муниципальный округ Емельяновский, Шуваевский сельсовет, село Шуваево", "specified_area": 13614, "status": "Учтенный" }, "subcategory": 5, "systemInfo": { "inserted": "2026-03-19T03:08:17.996486", "insertedBy": "7EF5CD0B-AC08-4097-AF2B-07CD85992A79", "updated": "2026-03-19T03:08:18.438059", "updatedBy": "064EDE2E-1DAA-4758-B509-34BC38C4AA5D" } }, "geometry": { "type": "Polygon", "coordinates": [ [ [ 10341987.21853013895452, 7597427.718382881954312 ], [ 10341753.07180704921484, 7597316.62049035076052 ], [ 10341826.037858808413148, 7597165.080809006467462 ], [ 10342062.332823915407062, 7597276.213229660876095 ], [ 10341987.21853013895452, 7597427.718382881954312 ] ] ], "crs": { "type": "name", "properties": { "name": "EPSG:3857" } } } },
{ "type": "Feature", "id": 1748965939, "properties": { "cadastralDistrictsCode": 24, "category": 36368, "categoryName": "Земельные участки ЕГРН", "descr": "24:11:0330102:900", "externalKey": "24:11:0330102:900", "interactionId": 1722197246, "label": "24:11:0330102:900", "options": { "area": null, "cad_num": "24:11:0330102:900", "cost_application_date": "", "cost_approvement_date": "", "cost_determination_date": "", "cost_index": 0, "cost_registration_date": "", "cost_value": 0, "declared_area": null, "determination_couse": "", "land_record_category_type": "Земли населенных пунктов", "land_record_reg_date": "2026-03-27", "land_record_subtype": "Землепользование", "land_record_type": "Земельный участок", "ownership_type": "Частная", "permitted_use_established_by_document": "для ведения личного подсобного хозяйства (приусадебный земельный участок) (2.2)", "quarter_cad_number": "24:11:0330102", "readable_address": "Российская Федерация, Красноярский край, м.о. Емельяновский, с. Шуваево, ориентировочно юго-западнее земельного участка с кадастровым номером 24:11:0130101:3908", "specified_area": 1000, "status": "Учтенный" }, "subcategory": 5, "systemInfo": { "inserted": "2026-03-27T10:26:30.465898", "insertedBy": "7EF5CD0B-AC08-4097-AF2B-07CD85992A79", "updated": "2026-03-27T11:02:30.274805", "updatedBy": "7EF5CD0B-AC08-4097-AF2B-07CD85992A79" } }, "geometry": { "type": "Polygon", "coordinates": [ [ [ 10342029.377943517640233, 7597002.801815198734403 ], [ 10342067.81858236156404, 7596928.482664735987782 ], [ 10342101.792007487267256, 7596946.049452633596957 ], [ 10342064.517603727057576, 7597020.047128103673458 ], [ 10342029.377943517640233, 7597002.801815198734403 ] ] ], "crs": { "type": "name", "properties": { "name": "EPSG:3857" } } } },
{ "type": "Feature", "id": 1748965947, "properties": { "cadastralDistrictsCode": 24, "category": 36368, "categoryName": "Земельные участки ЕГРН", "descr": "24:11:0330102:901", "externalKey": "24:11:0330102:901", "interactionId": 1722197254, "label": "24:11:0330102:901", "options": { "cad_num": "24:11:0330102:901", "cost_application_date": "", "cost_approvement_date": "", "cost_determination_date": "", "cost_index": 0, "cost_registration_date": "", "cost_value": 0, "determination_couse": "", "land_record_category_type": "Земли населенных пунктов", "land_record_reg_date": "2026-03-27", "land_record_subtype": "Землепользование", "land_record_type": "Земельный участок", "ownership_type": "Частная", "permitted_use_established_by_document": "для ведения личного подсобного хозяйства (приусадебный земельный участок) (2.2)", "quarter_cad_number": "24:11:0330102", "readable_address": "Российская Федерация, Красноярский край, м.о. Емельяновский, с. Шуваево, ориентировочно юго-западнее земельного участка с кадастровым номером 24:11:0130101:3908", "specified_area": 1000, "status": "Учтенный" }, "subcategory": 5, "systemInfo": { "inserted": "2026-03-27T10:26:30.606818", "insertedBy": "7EF5CD0B-AC08-4097-AF2B-07CD85992A79", "updated": "2026-03-27T10:26:34.341815", "updatedBy": "064EDE2E-1DAA-4758-B509-34BC38C4AA5D" } }, "geometry": { "type": "Polygon", "coordinates": [ [ [ 10342064.517603727057576, 7597020.047128103673458 ], [ 10342101.792007487267256, 7596946.049452633596957 ], [ 10342136.034359700977802, 7596963.760252450592816 ], [ 10342118.052077310159802, 7597000.607365436851978 ], [ 10342100.033684924244881, 7597037.508468806743622 ], [ 10342064.517603727057576, 7597020.047128103673458 ] ] ], "crs": { "type": "name", "properties": { "name": "EPSG:3857" } } } }
]
}
