{
  "type": "FeatureCollection",
  "features": [
    {
      "type": "Feature",
      "properties": {
        "zone": "Ж-4",
        "zone_name": "Зона многоэтажной жилой застройки",
        "vri": "Многоквартирные дома 7-16 этажей",
        "area_ha": 480
      },
      "geometry": {
        "type": "Polygon",
        "coordinates": [[
          [92.85, 55.98],
          [92.89, 55.98],
          [92.91, 55.99],
          [92.93, 56.00],
          [92.94, 56.02],
          [92.93, 56.035],
          [92.91, 56.04],
          [92.89, 56.045],
          [92.87, 56.04],
          [92.85, 56.035],
          [92.84, 56.02],
          [92.83, 56.00],
          [92.85, 55.98]
        ]]
      }
    },
    {
      "type": "Feature",
      "properties": {
        "zone": "О-1",
        "zone_name": "Центральная общественно-деловая зона",
        "vri": "Офисы, банки, администрация, торговля",
        "area_ha": 85
      },
      "geometry": {
        "type": "Polygon",
        "coordinates": [[
          [92.87, 56.04],
          [92.89, 56.045],
          [92.91, 56.04],
          [92.90, 56.06],
          [92.88, 56.065],
          [92.86, 56.06],
          [92.85, 56.05],
          [92.85, 56.035],
          [92.87, 56.04]
        ]]
      }
    },
    {
      "type": "Feature",
      "properties": {
        "zone": "О-2",
        "zone_name": "Зона деловой активности",
        "vri": "ТЦ, бизнес-центры, гостиницы",
        "area_ha": 65
      },
      "geometry": {
        "type": "Polygon",
        "coordinates": [[
          [92.91, 56.04],
          [92.93, 56.035],
          [92.94, 56.04],
          [92.935, 56.06],
          [92.92, 56.07],
          [92.90, 56.07],
          [92.90, 56.06],
          [92.91, 56.04]
        ]]
      }
    },
    {
      "type": "Feature",
      "properties": {
        "zone": "Ж-3",
        "zone_name": "Зона среднеэтажной застройки",
        "vri": "Многоквартирные дома до 6 эт.",
        "area_ha": 350
      },
      "geometry": {
        "type": "Polygon",
        "coordinates": [[
          [92.76, 56.00],
          [92.80, 56.00],
          [92.82, 56.00],
          [92.83, 56.00],
          [92.85, 55.98],
          [92.83, 55.96],
          [92.80, 55.95],
          [92.77, 55.96],
          [92.75, 55.98],
          [92.76, 56.00]
        ]]
      }
    },
    {
      "type": "Feature",
      "properties": {
        "zone": "Р-2",
        "zone_name": "Зона городских лесов",
        "vri": "Городские леса, лесопарки, зелёные зоны",
        "area_ha": 380
      },
      "geometry": {
        "type": "Polygon",
        "coordinates": [[
          [92.75, 55.98],
          [92.77, 55.96],
          [92.80, 55.95],
          [92.83, 55.96],
          [92.85, 55.98],
          [92.83, 56.00],
          [92.82, 56.00],
          [92.80, 55.99],
          [92.78, 55.99],
          [92.76, 56.00],
          [92.75, 55.98]
        ]]
      }
    },
    {
      "type": "Feature",
      "properties": {
        "zone": "Ж-1",
        "zone_name": "Зона индивидуальной жилой застройки",
        "vri": "ИЖС, ЛПХ, садовые участки",
        "area_ha": 420
      },
      "geometry": {
        "type": "Polygon",
        "coordinates": [[
          [92.82, 56.06],
          [92.85, 56.05],
          [92.85, 56.035],
          [92.84, 56.02],
          [92.83, 56.00],
          [92.82, 56.00],
          [92.80, 56.00],
          [92.78, 56.025],
          [92.77, 56.04],
          [92.78, 56.055],
          [92.80, 56.06],
          [92.82, 56.06]
        ]]
      }
    },
    {
      "type": "Feature",
      "properties": {
        "zone": "Ж-2",
        "zone_name": "Зона малоэтажной застройки",
        "vri": "Таунхаусы, дуплексы, до 3 эт.",
        "area_ha": 200
      },
      "geometry": {
        "type": "Polygon",
        "coordinates": [[
          [92.78, 56.055],
          [92.80, 56.06],
          [92.82, 56.06],
          [92.85, 56.05],
          [92.86, 56.06],
          [92.88, 56.065],
          [92.86, 56.08],
          [92.84, 56.09],
          [92.82, 56.09],
          [92.80, 56.08],
          [92.78, 56.07],
          [92.78, 56.055]
        ]]
      }
    },
    {
      "type": "Feature",
      "properties": {
        "zone": "Д-1",
        "zone_name": "Зона социальной инфраструктуры",
        "vri": "Школы, детсады, больницы, спорткомплексы",
        "area_ha": 40
      },
      "geometry": {
        "type": "Polygon",
        "coordinates": [[
          [92.90, 56.06],
          [92.92, 56.07],
          [92.90, 56.08],
          [92.88, 56.08],
          [92.88, 56.065],
          [92.90, 56.06]
        ]]
      }
    },
    {
      "type": "Feature",
      "properties": {
        "zone": "П-1",
        "zone_name": "Производственная зона",
        "vri": "Промышленность, склады, логистика",
        "area_ha": 520
      },
      "geometry": {
        "type": "Polygon",
        "coordinates": [[
          [92.94, 56.02],
          [92.97, 56.01],
          [92.99, 56.02],
          [92.98, 56.05],
          [92.97, 56.07],
          [92.95, 56.08],
          [92.93, 56.08],
          [92.94, 56.04],
          [92.94, 56.02]
        ]]
      }
    },
    {
      "type": "Feature",
      "properties": {
        "zone": "С-1",
        "zone_name": "Сельскохозяйственная зона",
        "vri": "Пашни, сенокосы, пастбища",
        "area_ha": 720
      },
      "geometry": {
        "type": "Polygon",
        "coordinates": [[
          [92.76, 55.90],
          [92.80, 55.90],
          [92.84, 55.90],
          [92.86, 55.93],
          [92.85, 55.95],
          [92.83, 55.96],
          [92.80, 55.95],
          [92.77, 55.96],
          [92.75, 55.93],
          [92.76, 55.90]
        ]]
      }
    },
    {
      "type": "Feature",
      "properties": {
        "zone": "Р-1",
        "zone_name": "Рекреационная зона",
        "vri": "Парки, набережные, скверы, зоны отдыха",
        "area_ha": 150
      },
      "geometry": {
        "type": "Polygon",
        "coordinates": [[
          [92.76, 56.00],
          [92.78, 56.025],
          [92.77, 56.04],
          [92.75, 56.03],
          [92.74, 56.01],
          [92.76, 56.00]
        ]]
      }
    },
    {
      "type": "Feature",
      "properties": {
        "zone": "Т-1",
        "zone_name": "Зона транспортной инфраструктуры",
        "vri": "Автомагистрали, ж/д пути, аэропорт",
        "area_ha": 180
      },
      "geometry": {
        "type": "Polygon",
        "coordinates": [[
          [92.97, 55.98],
          [92.95, 56.00],
          [92.94, 56.02],
          [92.94, 56.04],
          [92.96, 56.035],
          [92.98, 56.03],
          [93.00, 56.02],
          [92.99, 56.00],
          [92.97, 55.98]
        ]]
      }
    },
    {
      "type": "Feature",
      "properties": {
        "zone": "И-1",
        "zone_name": "Зона исторической застройки",
        "vri": "Культурное наследие, музеи, архитектура",
        "area_ha": 25
      },
      "geometry": {
        "type": "Polygon",
        "coordinates": [[
          [92.90, 56.07],
          [92.92, 56.07],
          [92.92, 56.08],
          [92.90, 56.08],
          [92.90, 56.07]
        ]]
      }
    },
    {
      "type": "Feature",
      "properties": {
        "zone": "Т-2",
        "zone_name": "Зона инженерной инфраструктуры",
        "vri": "Электроподстанции, котельные, очистные",
        "area_ha": 50
      },
      "geometry": {
        "type": "Polygon",
        "coordinates": [[
          [92.93, 56.08],
          [92.95, 56.08],
          [92.94, 56.10],
          [92.92, 56.10],
          [92.93, 56.08]
        ]]
      }
    },
    {
      "type": "Feature",
      "properties": {
        "zone": "П-2",
        "zone_name": "Коммунально-складская зона",
        "vri": "Склады, транспорт, логистика",
        "area_ha": 120
      },
      "geometry": {
        "type": "Polygon",
        "coordinates": [[
          [92.84, 56.09],
          [92.86, 56.08],
          [92.88, 56.08],
          [92.90, 56.08],
          [92.90, 56.10],
          [92.88, 56.11],
          [92.86, 56.10],
          [92.84, 56.09]
        ]]
      }
    }
  ]
}
